[Satellite]
VERSION=1.1
NAME=IRIDIUM 55 [+]
NICKNAME=IRIDIUM 55 [+]
TLE1=1 25272U 98019A   17186.25886304  .00000138  00000-0  42338-4 0  9990
TLE2=2 25272  86.3966 279.4403 0002292  92.9595 267.1863 14.34218963  8441
